NORAD_CAT_ID,OBJECT_NAME,OBJECT_TYPE,EPOCH,MEAN_MOTION,ECCENTRICITY,INCLINATION,RA_OF_ASC_NODE,ARG_OF_PERICENTER,MEAN_ANOMALY,BSTAR,MEAN_MOTION_DOT,MEAN_MOTION_DDOT,TLE_LINE0,TLE_LINE1,TLE_LINE2,SEMIMAJOR_AXIS,PERIOD,APOGEE,PERIGEE,DECAYED
51997.0,STARLINK-3589,PAYLOAD,2023-05-03 20:12:39,15.08839215,0.000124,53.2174,11.6678,79.981,280.1322,-0.00012727,-2.313e-05,0.0,0 STARLINK-3589,1 51997U 22025AT  23123.84212281 -.00002313  00000-0 -12727-3 0  9994,2 51997  53.2174  11.6678 0001240  79.9810 280.1322 15.08839215 65297,6917.883,95.438,540.606,538.89,0.0
51997.0,STARLINK-3589,PAYLOAD,2023-05-03 21:48:02,15.08841414,0.0001186,53.218,11.3705,84.0213,276.0915,-6.3863e-05,-1.304e-05,0.0,0 STARLINK-3589,1 51997U 22025AT  23123.90836562 -.00001304  00000-0 -63863-4 0  9992,2 51997  53.2180  11.3705 0001186  84.0213 276.0915 15.08841414 63783,6917.876,95.437,540.562,538.921,0.0
51997.0,STARLINK-3589,PAYLOAD,2023-05-04 08:55:44,15.08845004,0.0001118,53.2184,9.2881,62.3172,297.7933,-5.0566e-06,-3.68e-06,0.0,0 STARLINK-3589,1 51997U 22025AT  23124.37204069 -.00000368  00000-0 -50566-5 0  9991,2 51997  53.2184   9.2881 0001118  62.3172 297.7933 15.08845004 63853,6917.865,95.437,540.504,538.957,0.0
51997.0,STARLINK-3589,PAYLOAD,2023-05-04 21:38:49,15.08841438,0.0001241,53.2172,6.911,74.2131,285.8998,6.2766e-05,7.11e-06,0.0,0 STARLINK-3589,1 51997U 22025AT  23124.90196184  .00000711  00000-0  62766-4 0  9992,2 51997  53.2172   6.9110 0001241  74.2131 285.8998 15.08841438 63938,6917.876,95.437,540.6,538.882,0.0
51997.0,STARLINK-3589,PAYLOAD,2023-05-05 00:49:35,15.08845631,0.0001237,53.2169,6.3165,75.2804,284.8325,0.00012704,1.735e-05,0.0,0 STARLINK-3589,1 51997U 22025AT  23125.03443963  .00001735  00000-0  12704-3 0  9990,2 51997  53.2169   6.3165 0001237  75.2804 284.8325 15.08845631 65474,6917.863,95.437,540.584,538.872,0.0
51997.0,STARLINK-3589,PAYLOAD,2023-05-05 19:54:13,15.08837661,0.000121,53.2166,2.7485,86.8682,273.2448,-2.5916e-06,-3.29e-06,0.0,0 STARLINK-3589,1 51997U 22025AT  23125.82932540 -.00000329  00000-0 -25916-5 0  9992,2 51997  53.2166   2.7485 0001210  86.8682 273.2448 15.08837661 65594,6917.888,95.438,540.59,538.915,0.0
51997.0,STARLINK-3589,PAYLOAD,2023-05-05 23:05:00,15.08837037,0.0001177,53.2169,2.1528,83.3784,276.7342,-5.9662e-06,-3.83e-06,0.0,0 STARLINK-3589,1 51997U 22025AT  23125.96180559 -.00000383  00000-0 -59662-5 0  9997,2 51997  53.2169   2.1528 0001177  83.3784 276.7342 15.08837037 64098,6917.889,95.438,540.569,538.94,0.0
51997.0,STARLINK-3589,PAYLOAD,2023-05-07 00:31:09,15.08848063,0.0001256,53.2171,357.3917,87.2465,272.8671,0.00023796,3.502e-05,0.0,0 STARLINK-3589,1 51997U 22025AT  23127.02164107  .00003502  00000-0  23796-3 0  9998,2 51997  53.2171 357.3917 0001256  87.2465 272.8671 15.08848063 65774,6917.856,95.437,540.59,538.852,0.0
51997.0,STARLINK-3589,PAYLOAD,2023-05-07 19:35:48,15.08833936,0.0001328,53.2161,353.8228,126.4964,233.615,3.6522e-05,2.93e-06,0.0,0 STARLINK-3589,1 51997U 22025AT  23127.81653045  .00000293  00000-0  36522-4 0  9995,2 51997  53.2161 353.8228 0001328 126.4964 233.6150 15.08833936 65892,6917.899,95.438,540.683,538.845,0.0
51997.0,STARLINK-3589,PAYLOAD,2023-05-07 21:11:11,15.08833701,0.0001138,53.216,353.5309,78.4418,281.6702,6.5726e-05,7.58e-06,0.0,0 STARLINK-3589,1 51997U 22025AT  23127.88277403  .00000758  00000-0  65726-4 0  9996,2 51997  53.2160 353.5309 0001138  78.4418 281.6702 15.08833701 64386,6917.9,95.438,540.552,538.977,0.0
51997.0,STARLINK-3589,PAYLOAD,2023-05-08 21:01:58,15.08863372,0.0001176,53.2154,349.0702,82.2268,277.8858,0.0010199,0.00015991,0.0,0 STARLINK-3589,1 51997U 22025AT  23128.87636750  .00015991  00000-0  10199-2 0  9997,2 51997  53.2154 349.0702 0001176  82.2268 277.8858 15.08863372 66056,6917.809,95.436,540.487,538.86,0.0
51997.0,STARLINK-3589,PAYLOAD,2023-05-09 20:52:45,15.08850421,0.0001259,53.2157,344.6088,80.5105,279.6029,0.00051294,7.887e-05,0.0,0 STARLINK-3589,1 51997U 22025AT  23129.86996857  .00007887  00000-0  51294-3 0  9991,2 51997  53.2157 344.6088 0001259  80.5105 279.6029 15.08850421 64688,6917.849,95.437,540.584,538.843,0.0
51997.0,STARLINK-3589,PAYLOAD,2023-05-10 20:43:32,15.08855639,0.0001292,53.216,340.1473,71.7528,288.3604,0.00087433,0.0001366,0.0,0 STARLINK-3589,1 51997U 22025AT  23130.86356821  .00013660  00000-0  87433-3 0  9994,2 51997  53.2160 340.1473 0001292  71.7528 288.3604 15.08855639 64838,6917.833,95.437,540.591,538.804,0.0
51997.0,STARLINK-3589,PAYLOAD,2023-05-10 22:18:55,15.08855813,0.0001278,53.2164,339.8495,71.2129,288.9001,0.00081466,0.00012707,0.0,0 STARLINK-3589,1 51997U 22025AT  23130.92980756  .00012707  00000-0  81466-3 0  9992,2 51997  53.2164 339.8495 0001278  71.2129 288.9001 15.08855813 66368,6917.832,95.437,540.581,538.813,0.0
51997.0,STARLINK-3589,PAYLOAD,2023-05-11 11:02:00,15.08842183,0.0001436,53.2153,337.4723,93.3676,266.748,0.00012762,1.744e-05,0.0,0 STARLINK-3589,1 51997U 22025AT  23131.45972944  .00001744  00000-0  12762-3 0  9993,2 51997  53.2153 337.4723 0001436  93.3676 266.7480 15.08842183 66442,6917.874,95.437,540.732,538.745,0.0
51997.0,STARLINK-3589,PAYLOAD,2023-05-11 20:34:19,15.08845244,0.000111,53.2161,335.6877,75.9706,284.1409,0.00026782,3.978e-05,0.0,0 STARLINK-3589,1 51997U 22025AT  23131.85716943  .00003978  00000-0  26782-3 0  9990,2 51997  53.2161 335.6877 0001110  75.9706 284.1409 15.08845244 64983,6917.864,95.437,540.497,538.961,0.0
51997.0,STARLINK-3589,PAYLOAD,2023-05-12 18:49:43,15.08840452,0.0001038,53.2156,331.5266,82.5597,277.5513,7.2922e-05,8.73e-06,0.0,0 STARLINK-3589,1 51997U 22025AT  23132.78453279  .00000873  00000-0  72922-4 0  9992,2 51997  53.2156 331.5266 0001038  82.5597 277.5513 15.08840452 66648,6917.879,95.438,540.462,539.026,0.0
51997.0,STARLINK-3589,PAYLOAD,2023-05-13 20:15:53,15.08844518,0.0001044,53.2153,326.7689,90.0533,270.0578,0.0002187,3.195e-05,0.0,0 STARLINK-3589,1 51997U 22025AT  23133.84437215  .00003195  00000-0  21870-3 0  9997,2 51997  53.2153 326.7689 0001044  90.0533 270.0578 15.08844518 66805,6917.867,95.437,540.454,539.009,0.0
51997.0,STARLINK-3589,PAYLOAD,2023-05-14 05:48:12,15.08842274,9.88e-05,53.2147,324.9854,95.2796,264.8309,0.00013447,1.853e-05,0.0,0 STARLINK-3589,1 51997U 22025AT  23134.24181257  .00001853  00000-0  13447-3 0  9994,2 51997  53.2147 324.9854 0000988  95.2796 264.8309 15.08842274 65344,6917.873,95.437,540.422,539.055,0.0
51997.0,STARLINK-3589,PAYLOAD,2023-05-14 20:06:40,15.08841648,0.0001013,53.2151,322.3077,93.9002,266.2106,7.0559e-05,8.35e-06,0.0,0 STARLINK-3589,1 51997U 22025AT  23134.83797332  .00000835  00000-0  70559-4 0  9993,2 51997  53.2151 322.3077 0001013  93.9002 266.2106 15.08841648 66956,6917.875,95.437,540.441,539.04,0.0
51997.0,STARLINK-3589,PAYLOAD,2023-05-15 05:38:59,15.0883821,0.0001095,53.2161,320.5202,86.3342,273.7775,2.2247e-05,6.6e-07,0.0,0 STARLINK-3589,1 51997U 22025AT  23135.23541588  .00000066  00000-0  22247-4 0  9995,2 51997  53.2161 320.5202 0001095  86.3342 273.7775 15.08838210 65494,6917.886,95.438,540.508,538.993,0.0
51997.0,STARLINK-3589,PAYLOAD,2023-05-15 18:22:05,15.08838468,0.0001064,53.216,318.1415,89.776,270.3354,7.1116e-06,-1.75e-06,0.0,0 STARLINK-3589,1 51997U 22025AT  23135.76533684 -.00000175  00000-0  71116-5 0  9993,2 51997  53.2160 318.1415 0001064  89.7760 270.3354 15.08838468 67098,6917.885,95.438,540.486,539.014,0.0
51997.0,STARLINK-3589,PAYLOAD,2023-05-16 05:29:47,15.08843621,0.0001081,53.2163,316.0614,83.623,276.4885,2.4207e-05,9.8e-07,0.0,0 STARLINK-3589,1 51997U 22025AT  23136.22901640  .00000098  00000-0  24207-4 0  9997,2 51997  53.2163 316.0614 0001081  83.6230 276.4885 15.08843621 65645,6917.869,95.437,540.482,538.986,0.0
51997.0,STARLINK-3589,PAYLOAD,2023-05-16 18:12:52,15.08839723,0.0001129,53.2162,313.6824,86.8163,273.2958,0.00013734,1.899e-05,0.0,0 STARLINK-3589,1 51997U 22025AT  23136.75893716  .00001899  00000-0  13734-3 0  9991,2 51997  53.2162 313.6824 0001129  86.8163 273.2958 15.08839723 65726,6917.881,95.438,540.527,538.965,0.0
51997.0,STARLINK-3589,PAYLOAD,2023-05-17 02:09:48,15.08833683,0.0001715,53.2135,312.2042,48.4809,311.633,3.1811e-05,2.18e-06,0.0,0 STARLINK-3589,1 51997U 22025AT  23137.09014320  .00000218  00000-0  31811-4 0  9996,2 51997  53.2135 312.2042 0001715  48.4809 311.6330 15.08833683 67299,6917.9,95.438,540.951,538.578,0.0
51997.0,STARLINK-3589,PAYLOAD,2023-05-17 18:03:39,15.08843593,0.0001048,53.2156,309.2218,86.7672,273.344,0.00012392,1.685e-05,0.0,0 STARLINK-3589,1 51997U 22025AT  23137.75253672  .00001685  00000-0  12392-3 0  9995,2 51997  53.2156 309.2218 0001048  86.7672 273.3440 15.08843593 67393,6917.869,95.437,540.459,539.009,0.0
51997.0,STARLINK-3589,PAYLOAD,2023-05-17 19:39:02,15.08845083,0.000104,53.2156,308.9246,85.8993,274.2118,0.00014599,2.037e-05,0.0,0 STARLINK-3589,1 51997U 22025AT  23137.81877609  .00002037  00000-0  14599-3 0  9997,2 51997  53.2156 308.9246 0001040  85.8993 274.2118 15.08845083 65888,6917.865,95.437,540.449,539.01,0.0
51997.0,STARLINK-3589,PAYLOAD,2023-05-18 11:32:53,15.0883819,0.0001216,53.2155,305.951,85.5162,274.5969,-2.3881e-05,-6.68e-06,0.0,0 STARLINK-3589,1 51997U 22025AT  23138.48117928 -.00000668  00000-0 -23881-4 0  9997,2 51997  53.2155 305.9510 0001216  85.5162 274.5969 15.08838190 67507,6917.886,95.438,540.592,538.91,0.0
51997.0,STARLINK-3589,PAYLOAD,2023-05-18 21:05:12,15.08843107,0.0001061,53.216,304.166,89.0512,271.0602,3.2402e-05,2.28e-06,0.0,0 STARLINK-3589,1 51997U 22025AT  23138.87861708  .00000228  00000-0  32402-4 0  9991,2 51997  53.2160 304.1660 0001061  89.0512 271.0602 15.08843107 66044,6917.871,95.437,540.47,539.002,0.0
51997.0,STARLINK-3589,PAYLOAD,2023-05-19 17:45:13,15.0884249,9.82e-05,53.2156,300.3009,89.3593,270.7512,0.00013384,1.843e-05,0.0,0 STARLINK-3589,1 51997U 22025AT  23139.73973829  .00001843  00000-0  13384-3 0  9996,2 51997  53.2156 300.3009 0000982  89.3593 270.7512 15.08842490 67699,6917.873,95.437,540.417,539.058,0.0
